NORAD_CAT_ID,OBJECT_NAME,OBJECT_TYPE,EPOCH,MEAN_MOTION,ECCENTRICITY,INCLINATION,RA_OF_ASC_NODE,ARG_OF_PERICENTER,MEAN_ANOMALY,BSTAR,MEAN_MOTION_DOT,MEAN_MOTION_DDOT,TLE_LINE0,TLE_LINE1,TLE_LINE2,SEMIMAJOR_AXIS,PERIOD,APOGEE,PERIGEE,DECAYED
55788.0,STARLINK-5804,PAYLOAD,2024-02-27 20:30:36,14.98330178,0.0002882,69.9978,272.4698,267.7569,92.326,-2.4235e-05,-3.82e-06,0.0,0 STARLINK-5804,1 55788U 23028AZ  24058.85458757 -.00000382  00000-0 -24235-4 0  9991,2 55788  69.9978 272.4698 0002882 267.7569  92.3260 14.98330178 56044,6950.192,96.107,574.06,570.054,0.0
55788.0,STARLINK-5804,PAYLOAD,2024-02-27 22:06:44,14.98330004,0.0002893,69.9977,272.3014,267.67,92.4128,-2.5789e-05,-4.01e-06,0.0,0 STARLINK-5804,1 55788U 23028AZ  24058.92134771 -.00000401  00000-0 -25789-4 0  9993,2 55788  69.9977 272.3014 0002893 267.6700  92.4128 14.98330004 56066,6950.193,96.107,574.069,570.047,0.0
55788.0,STARLINK-5804,PAYLOAD,2024-02-28 14:08:05,14.98326542,0.0002971,69.9975,270.6174,268.5696,91.5123,2.5738e-05,2.14e-06,0.0,0 STARLINK-5804,1 55788U 23028AZ  24059.58894869  .00000214  00000-0  25738-4 0  9991,2 55788  69.9975 270.6174 0002971 268.5696  91.5123 14.98326542 56161,6950.204,96.107,574.133,570.004,0.0
55788.0,STARLINK-5804,PAYLOAD,2024-02-28 20:32:37,14.9832689,0.0002985,69.9975,269.9442,268.829,91.2527,2.61e-05,2.18e-06,0.0,0 STARLINK-5804,1 55788U 23028AZ  24059.85598887  .00000218  00000-0  26100-4 0  9990,2 55788  69.9975 269.9442 0002985 268.8290  91.2527 14.98326890 56192,6950.203,96.107,574.142,569.993,0.0
55788.0,STARLINK-5804,PAYLOAD,2024-02-28 22:08:45,14.98326746,0.000299,69.9975,269.7758,268.8656,91.2161,2.347e-05,1.87e-06,0.0,0 STARLINK-5804,1 55788U 23028AZ  24059.92274915  .00000187  00000-0  23470-4 0  9993,2 55788  69.9975 269.7758 0002990 268.8656  91.2161 14.98326746 56219,6950.203,96.107,574.146,569.99,0.0
55788.0,STARLINK-5804,PAYLOAD,2024-02-29 14:10:06,14.98330294,0.0003003,69.9976,268.0925,269.0268,91.0547,-1.476e-06,-1.11e-06,0.0,0 STARLINK-5804,1 55788U 23028AZ  24060.59034830 -.00000111  00000-0 -14760-5 0  9990,2 55788  69.9976 268.0925 0003003 269.0268  91.0547 14.98330294 56316,6950.192,96.107,574.144,569.97,0.0
55788.0,STARLINK-5804,PAYLOAD,2024-02-29 20:34:38,14.98329103,0.0003002,69.9978,267.4193,268.132,91.9496,1.7315e-05,1.14e-06,0.0,0 STARLINK-5804,1 55788U 23028AZ  24060.85738847  .00000114  00000-0  17315-4 0  9997,2 55788  69.9978 267.4193 0003002 268.1320  91.9496 14.98329103 56348,6950.196,96.107,574.147,569.974,0.0
55788.0,STARLINK-5804,PAYLOAD,2024-02-29 22:10:46,14.9832305,0.0002911,69.9979,267.2509,266.3121,93.7706,0.00012901,1.446e-05,0.0,0 STARLINK-5804,1 55788U 23028AZ  24060.92414927  .00001446  00000-0  12901-3 0  9999,2 55788  69.9979 267.2509 0002911 266.3121  93.7706 14.98323050 56366,6950.214,96.107,574.103,570.056,0.0
55788.0,STARLINK-5804,PAYLOAD,2024-03-01 14:12:06,14.9833424,0.0002836,69.9981,265.5675,270.5063,89.5771,-4.5209e-06,-1.47e-06,0.0,0 STARLINK-5804,1 55788U 23028AZ  24061.59174556 -.00000147  00000-0 -45209-5 0  9992,2 55788  69.9981 265.5675 0002836 270.5063  89.5771 14.98334240 56461,6950.18,96.107,574.016,570.074,0.0
55788.0,STARLINK-5804,PAYLOAD,2024-03-01 22:12:47,14.98332439,0.0003002,69.9983,264.726,271.3518,88.7297,5.1004e-05,5.16e-06,0.0,0 STARLINK-5804,1 55788U 23028AZ  24061.92554422  .00000516  00000-0  51004-4 0  9990,2 55788  69.9983 264.7260 0003002 271.3518  88.7297 14.98332439 56512,6950.185,96.107,574.137,569.964,0.0
55788.0,STARLINK-5804,PAYLOAD,2024-03-01 23:48:55,14.98333203,0.0002961,69.9981,264.5573,270.0209,90.0611,4.9951e-05,5.03e-06,0.0,0 STARLINK-5804,1 55788U 23028AZ  24061.99230347  .00000503  00000-0  49951-4 0  9998,2 55788  69.9981 264.5573 0002961 270.0209  90.0611 14.98333203 56517,6950.183,96.107,574.106,569.99,0.0
55788.0,STARLINK-5804,PAYLOAD,2024-03-02 14:14:07,14.98335894,0.0002747,69.9984,263.0424,271.3514,88.733,-2.8398e-05,-4.32e-06,0.0,0 STARLINK-5804,1 55788U 23028AZ  24062.59314320 -.00000432  00000-0 -28398-4 0  9994,2 55788  69.9984 263.0424 0002747 271.3514  88.7330 14.98335894 56615,6950.175,96.107,573.949,570.13,0.0
55788.0,STARLINK-5804,PAYLOAD,2024-03-02 22:14:47,14.98331983,0.0002914,69.9981,262.2005,271.303,88.7795,1.1515e-05,4.4e-07,0.0,0 STARLINK-5804,1 55788U 23028AZ  24062.92694318  .00000044  00000-0  11515-4 0  9999,2 55788  69.9981 262.2005 0002914 271.3030  88.7795 14.98331983 56662,6950.187,96.107,574.077,570.026,0.0
55788.0,STARLINK-5804,PAYLOAD,2024-03-02 23:50:55,14.98331635,0.0002558,69.9979,262.0312,267.6458,92.4408,4.5566e-05,4.51e-06,0.0,0 STARLINK-5804,1 55788U 23028AZ  24062.99370336  .00000451  00000-0  45566-4 0  9992,2 55788  69.9979 262.0312 0002558 267.6458  92.4408 14.98331635 56661,6950.188,96.107,573.831,570.275,0.0
55788.0,STARLINK-5804,PAYLOAD,2024-03-03 14:16:08,14.98331046,0.0002909,69.998,260.5159,271.2429,88.8397,-6.9595e-06,-1.76e-06,0.0,0 STARLINK-5804,1 55788U 23028AZ  24063.59454274 -.00000176  00000-0 -69595-5 0  9998,2 55788  69.9980 260.5159 0002909 271.2429  88.8397 14.98331046 56767,6950.19,96.107,574.076,570.033,0.0
55788.0,STARLINK-5804,PAYLOAD,2024-03-03 20:40:40,14.9833533,0.0002668,69.998,259.8423,267.6082,92.4772,3.5441e-05,3.3e-06,0.0,0 STARLINK-5804,1 55788U 23028AZ  24063.86157825  .00000330  00000-0  35441-4 0  9992,2 55788  69.9980 259.8423 0002668 267.6082  92.4772 14.98335330 56801,6950.176,96.107,573.896,570.187,0.0
55788.0,STARLINK-5804,PAYLOAD,2024-03-03 23:52:56,14.98338508,0.0002819,69.9979,259.5053,273.8399,86.2438,4.4642e-05,4.4e-06,0.0,0 STARLINK-5804,1 55788U 23028AZ  24063.99509548  .00000440  00000-0  44642-4 0  9994,2 55788  69.9979 259.5053 0002819 273.8399  86.2438 14.98338508 56814,6950.167,96.106,573.991,570.072,0.0
55788.0,STARLINK-5804,PAYLOAD,2024-03-04 06:17:28,14.98333207,0.0002559,69.9989,258.8305,269.6367,90.4499,-1.5179e-05,-2.74e-06,0.0,0 STARLINK-5804,1 55788U 23028AZ  24064.26213960 -.00000274  00000-0 -15179-4 0  9995,2 55788  69.9989 258.8305 0002559 269.6367  90.4499 14.98333207 56855,6950.183,96.107,573.827,570.269,0.0
55788.0,STARLINK-5804,PAYLOAD,2024-03-04 14:18:09,14.98327064,0.0002384,69.9985,257.9885,258.059,102.0302,4.8846e-05,4.9e-06,0.0,0 STARLINK-5804,1 55788U 23028AZ  24064.59593930  .00000490  00000-0  48846-4 0  9994,2 55788  69.9985 257.9885 0002384 258.0590 102.0302 14.98327064 56914,6950.202,96.107,573.724,570.41,0.0
55788.0,STARLINK-5804,PAYLOAD,2024-03-04 22:18:49,14.98327237,0.0002759,69.9984,257.15,266.9465,93.1379,-3.8083e-05,-5.47e-06,0.0,0 STARLINK-5804,1 55788U 23028AZ  24064.92974260 -.00000547  00000-0 -38083-4 0  9997,2 55788  69.9984 257.1500 0002759 266.9465  93.1379 14.98327237 56965,6950.201,96.107,573.984,570.149,0.0
55788.0,STARLINK-5804,PAYLOAD,2024-03-05 14:20:10,14.98327577,0.0002937,69.9984,255.4665,270.9765,89.1058,-3.3885e-05,-4.97e-06,0.0,0 STARLINK-5804,1 55788U 23028AZ  24065.59734252 -.00000497  00000-0 -33885-4 0  9995,2 55788  69.9984 255.4665 0002937 270.9765  89.1058 14.98327577 57062,6950.2,96.107,574.107,570.024,0.0
55788.0,STARLINK-5804,PAYLOAD,2024-03-05 19:08:34,14.98328801,0.0002707,69.9983,254.9616,264.0804,96.0046,-7.0578e-05,-9.35e-06,0.0,0 STARLINK-5804,1 55788U 23028AZ  24065.79762292 -.00000935  00000-0 -70578-4 0  9999,2 55788  69.9983 254.9616 0002707 264.0804  96.0046 14.98328801 57081,6950.197,96.107,573.943,570.18,0.0
55788.0,STARLINK-5804,PAYLOAD,2024-03-06 14:22:11,14.98326414,0.0002992,69.9985,252.9416,270.8912,89.1904,2.1056e-05,1.58e-06,0.0,0 STARLINK-5804,1 55788U 23028AZ  24066.59874217  .00000158  00000-0  21056-4 0  9991,2 55788  69.9985 252.9416 0002992 270.8912  89.1904 14.98326414 57219,6950.204,96.107,574.148,569.989,0.0
55788.0,STARLINK-5804,PAYLOAD,2024-03-06 19:10:35,14.98327502,0.0003,69.9985,252.4367,270.9567,89.1248,2.2814e-05,1.79e-06,0.0,0 STARLINK-5804,1 55788U 23028AZ  24066.79902185  .00000179  00000-0  22814-4 0  9995,2 55788  69.9985 252.4367 0003000 270.9567  89.1248 14.98327502 57239,6950.201,96.107,574.151,569.981,0.0
55788.0,STARLINK-5804,PAYLOAD,2024-03-07 14:24:12,14.98329253,0.0003011,69.9986,250.4167,271.1325,88.9489,5.1716e-05,5.24e-06,0.0,0 STARLINK-5804,1 55788U 23028AZ  24067.60014061  .00000524  00000-0  51716-4 0  9990,2 55788  69.9986 250.4167 0003011 271.1325  88.9489 14.98329253 57366,6950.195,96.107,574.153,569.967,0.0
55788.0,STARLINK-5804,PAYLOAD,2024-03-08 11:13:56,14.98331117,0.000299,69.9989,248.2285,271.6135,88.4681,2.5794e-05,2.15e-06,0.0,0 STARLINK-5804,1 55788U 23028AZ  24068.46801970  .00000215  00000-0  25794-4 0  9992,2 55788  69.9989 248.2285 0002990 271.6135  88.4681 14.98331117 57488,6950.189,96.107,574.133,569.976,0.0
55788.0,STARLINK-5804,PAYLOAD,2024-03-09 04:51:25,14.98331859,0.0003,69.9989,246.3771,270.3541,89.7275,1.3018e-05,6.2e-07,0.0,0 STARLINK-5804,1 55788U 23028AZ  24069.20237837  .00000062  00000-0  13018-4 0  9996,2 55788  69.9989 246.3771 0003000 270.3541  89.7275 14.98331859 57607,6950.187,96.107,574.137,569.967,0.0
55788.0,STARLINK-5804,PAYLOAD,2024-03-09 17:40:30,14.98329443,0.0002918,69.9993,245.0304,267.641,92.4415,-3.2227e-05,-4.77e-06,0.0,0 STARLINK-5804,1 55788U 23028AZ  24069.73646048 -.00000477  00000-0 -32227-4 0  9997,2 55788  69.9993 245.0304 0002918 267.6410  92.4415 14.98329443 57671,6950.195,96.107,574.088,570.032,0.0
55788.0,STARLINK-5804,PAYLOAD,2024-03-10 11:17:58,14.98324446,0.0003254,69.9975,243.1763,270.1042,89.9744,3.2745e-05,2.98e-06,0.0,0 STARLINK-5804,1 55788U 23028AZ  24070.47082070  .00000298  00000-0  32745-4 0  9993,2 55788  69.9975 243.1763 0003254 270.1042  89.9744 14.98324446 57790,6950.21,96.107,574.337,569.813,0.0
55788.0,STARLINK-5804,PAYLOAD,2024-03-10 20:54:47,14.9833131,0.0003115,69.9997,242.1684,267.8336,92.2467,-1.7067e-05,-2.97e-06,0.0,0 STARLINK-5804,1 55788U 23028AZ  24070.87137790 -.00000297  00000-0 -17067-4 0  9998,2 55788  69.9997 242.1684 0003115 267.8336  92.2467 14.98331310 57843,6950.189,96.107,574.219,569.889,0.0
